IRIDIUM 150             
1 43257U 18030J   25183.18925200  .00000009  00000+0 -37432-5 0  9992
2 43257  86.3951  76.7927 0001920  77.8647 282.2764 14.34217504379993
IRIDIUM 143             
1 43258U 18030K   25183.44929795 -.00000004  00000+0 -83620-5 0  9991
2 43258  86.3954  76.7629 0001747  74.9264 285.2125 14.34217450379967
IRIDIUM 161             
1 43478U 18047C   25183.60290807  .00000176  00000+0  46325-4 0  9994
2 43478  86.4484 234.4960 0002561  95.6618 264.4875 14.43282384374716
IRIDIUM 152             
1 43479U 18047D   25183.56155470 -.00000010  00000+0 -10622-4 0  9996
2 43479  86.3962 234.3736 0002345  92.2717 267.8747 14.34217379372377
IRIDIUM 147             
1 43480U 18047E   25183.56789629 -.00000015  00000+0 -12462-4 0  9996
2 43480  86.3963 234.3698 0002200  97.2857 262.8589 14.34217472372370
IRIDIUM 110             
1 43481U 18047F   25183.57424027  .00000010  00000+0 -34584-5 0  9990
2 43481  86.3962 234.4500 0002753  98.4314 261.7194 14.34217623372364
IRIDIUM 162             
1 43482U 18047G   25183.59660817  .00000169  00000+0  44169-4 0  9995
2 43482  86.4482 234.3932 0002726  93.8453 266.3060 14.43283307374709
IRIDIUM 160             
1 43569U 18061A   25183.58984398 -.00000024  00000+0 -15595-4 0  9992
2 43569  86.3987 202.8480 0002415  93.8512 266.2960 14.34217459363265
